[{"OBJECT_NAME":"STARLINK-35109","OBJECT_ID":"2025-210W","EPOCH":"2026-03-09T22:33:33.185952","MEAN_MOTION":15.3020251,"ECCENTRICITY":8.28e-5,"INCLINATION":53.1571,"RA_OF_ASC_NODE":305.6144,"ARG_OF_PERICENTER":78.8903,"MEAN_ANOMALY":281.2191,"EPHEMERIS_TYPE":0,"CLASSIFICATION_TYPE":"U","NORAD_CAT_ID":65642,"ELEMENT_SET_NO":999,"REV_AT_EPOCH":2777,"BSTAR":0.00074966944,"MEAN_MOTION_DOT":0.00021911,"MEAN_MOTION_DDOT":0},{"OBJECT_NAME":"CZ-6A DEB","OBJECT_ID":"2024-140ABG","EPOCH":"2026-03-09T16:43:29.524800","MEAN_MOTION":15.18896608,"ECCENTRICITY":0.00616087,"INCLINATION":89.2171,"RA_OF_ASC_NODE":295.9508,"ARG_OF_PERICENTER":79.2706,"MEAN_ANOMALY":281.5467,"EPHEMERIS_TYPE":0,"CLASSIFICATION_TYPE":"U","NORAD_CAT_ID":61498,"ELEMENT_SET_NO":999,"REV_AT_EPOCH":8006,"BSTAR":0.0048163661,"MEAN_MOTION_DOT":0.0010689,"MEAN_MOTION_DDOT":0}]
